ALOS (DAICHI)           
1 28931U 06002A   25351.73419158  .00001110  00000+0  19545-3 0  9994
2 28931  98.1098 303.1864 0001361 113.5739 246.5610 14.69501788 61443
H-2A R/B                
1 28932U 06002B   25356.10022792  .00009876  00000+0  51686-3 0  9994
2 28932  98.2326 131.6146 0054862 144.6450 215.8437 15.14745318 82680
RESURS-DK 1             
1 29228U 06021A   25355.95884212  .00002498  00000+0  15044-3 0  9990
2 29228  69.9338  78.0128 0006860 250.9128 109.1296 15.12208647 75776
CZ-4B R/B               
1 29507U 06046C   25356.07634971  .00005174  00000+0  26939-3 0  9995
2 29507  97.5716  36.1893 0034057 173.9689 186.1961 15.15958131 48285
CZ-2C R/B               
1 31114U 07010B   25356.15935093  .00000133  00000+0  79964-4 0  9999
2 31114  98.3976 108.3361 0059505 158.6518 201.7162 14.20213474968712
COSMO-SKYMED 1          
1 31598U 07023A   25356.15349998  .00003397  00000+0  30947-3 0  9994
2 31598  97.8839 181.6148 0001498  81.1981 278.9410 14.95834950  3317
COSMOS 2428             
1 31792U 07029A   25356.01287649  .00000184  00000+0  12452-3 0  9997
2 31792  70.9365   6.4097 0004193  10.5789 349.5419 14.12893369953128
SL-16 R/B               
1 31793U 07029B   25355.74385367  .00000247  00000+0  15299-3 0  9995
2 31793  70.9759 336.2297 0001901 262.9375 270.0827 14.14816917954342
KORONAS-FOTON           
1 33504U 09003A   25356.03839566  .00010014  00000+0  23830-3 0  9992
2 33504  82.4308 356.4686 0013394  79.5441 280.7313 15.41370853933770
CZ-2C R/B               
1 37731U 11030B   25355.84447890  .00001098  00000+0  14582-3 0  9990
2 37731  97.8428 309.7502 0051412 243.1225 146.3934 14.80927953778571
H-2A R/B                
1 38341U 12025E   25355.74545321  .00002173  00000+0  20379-3 0  9996
2 38341  98.4610 311.6703 0044368 206.2534 153.6436 14.94496716736574
SHIJIAN-16 (SJ-16)      
1 39358U 13057A   25356.19109322  .00000672  00000+0  69014-4 0  9990
2 39358  74.9731 331.7707 0017924 297.8107  62.1264 14.92006272659943
