CCSDS_OMM_VERS = 2.0
CREATION_DATE  = 
ORIGINATOR     = 

OBJECT_NAME    = ALOS (DAICHI)
OBJECT_ID      = 2006-002A
CENTER_NAME    = EARTH
REF_FRAME      = TEME
TIME_SYSTEM    = UTC
MEAN_ELEMENT_THEORY = SGP/SGP4

EPOCH          = 2025-12-17T17:37:14.152512
MEAN_MOTION    = 14.69501788
ECCENTRICITY   = .00013612
INCLINATION    = 98.1098
RA_OF_ASC_NODE = 303.1864
ARG_OF_PERICENTER = 113.5739
MEAN_ANOMALY   = 246.5610

EPHEMERIS_TYPE = 0
CLASSIFICATION_TYPE = U
NORAD_CAT_ID   = 28931
ELEMENT_SET_NO = 999
REV_AT_EPOCH   = 6144
BSTAR          = .19545051E-3
MEAN_MOTION_DOT = .111E-4
MEAN_MOTION_DDOT = 0

CCSDS_OMM_VERS = 2.0
CREATION_DATE  = 
ORIGINATOR     = 

OBJECT_NAME    = H-2A R/B
OBJECT_ID      = 2006-002B
CENTER_NAME    = EARTH
REF_FRAME      = TEME
TIME_SYSTEM    = UTC
MEAN_ELEMENT_THEORY = SGP/SGP4

EPOCH          = 2025-12-22T02:24:19.692288
MEAN_MOTION    = 15.14745318
ECCENTRICITY   = .0054862
INCLINATION    = 98.2326
RA_OF_ASC_NODE = 131.6146
ARG_OF_PERICENTER = 144.6450
MEAN_ANOMALY   = 215.8437

EPHEMERIS_TYPE = 0
CLASSIFICATION_TYPE = U
NORAD_CAT_ID   = 28932
ELEMENT_SET_NO = 999
REV_AT_EPOCH   = 8268
BSTAR          = .51686E-3
MEAN_MOTION_DOT = .9876E-4
MEAN_MOTION_DDOT = 0

CCSDS_OMM_VERS = 2.0
CREATION_DATE  = 
ORIGINATOR     = 

OBJECT_NAME    = RESURS-DK 1
OBJECT_ID      = 2006-021A
CENTER_NAME    = EARTH
REF_FRAME      = TEME
TIME_SYSTEM    = UTC
MEAN_ELEMENT_THEORY = SGP/SGP4

EPOCH          = 2025-12-21T23:00:43.959168
MEAN_MOTION    = 15.12208647
ECCENTRICITY   = .000686
INCLINATION    = 69.9338
RA_OF_ASC_NODE = 78.0128
ARG_OF_PERICENTER = 250.9128
MEAN_ANOMALY   = 109.1296

EPHEMERIS_TYPE = 0
CLASSIFICATION_TYPE = U
NORAD_CAT_ID   = 29228
ELEMENT_SET_NO = 999
REV_AT_EPOCH   = 7577
BSTAR          = .15044E-3
MEAN_MOTION_DOT = .2498E-4
MEAN_MOTION_DDOT = 0

CCSDS_OMM_VERS = 2.0
CREATION_DATE  = 
ORIGINATOR     = 

OBJECT_NAME    = CZ-4B R/B
OBJECT_ID      = 2006-046C
CENTER_NAME    = EARTH
REF_FRAME      = TEME
TIME_SYSTEM    = UTC
MEAN_ELEMENT_THEORY = SGP/SGP4

EPOCH          = 2025-12-22T01:49:56.614944
MEAN_MOTION    = 15.15958131
ECCENTRICITY   = .0034057
INCLINATION    = 97.5716
RA_OF_ASC_NODE = 36.1893
ARG_OF_PERICENTER = 173.9689
MEAN_ANOMALY   = 186.1961

EPHEMERIS_TYPE = 0
CLASSIFICATION_TYPE = U
NORAD_CAT_ID   = 29507
ELEMENT_SET_NO = 999
REV_AT_EPOCH   = 4828
BSTAR          = .26939E-3
MEAN_MOTION_DOT = .5174E-4
MEAN_MOTION_DDOT = 0

CCSDS_OMM_VERS = 2.0
CREATION_DATE  = 
ORIGINATOR     = 

OBJECT_NAME    = CZ-2C R/B
OBJECT_ID      = 2007-010B
CENTER_NAME    = EARTH
REF_FRAME      = TEME
TIME_SYSTEM    = UTC
MEAN_ELEMENT_THEORY = SGP/SGP4

EPOCH          = 2025-12-22T03:49:27.920352
MEAN_MOTION    = 14.20213474
ECCENTRICITY   = .0059505
INCLINATION    = 98.3976
RA_OF_ASC_NODE = 108.3361
ARG_OF_PERICENTER = 158.6518
MEAN_ANOMALY   = 201.7162

EPHEMERIS_TYPE = 0
CLASSIFICATION_TYPE = U
NORAD_CAT_ID   = 31114
ELEMENT_SET_NO = 999
REV_AT_EPOCH   = 96871
BSTAR          = .79964E-4
MEAN_MOTION_DOT = .133E-5
MEAN_MOTION_DDOT = 0

CCSDS_OMM_VERS = 2.0
CREATION_DATE  = 
ORIGINATOR     = 

OBJECT_NAME    = COSMO-SKYMED 1
OBJECT_ID      = 2007-023A
CENTER_NAME    = EARTH
REF_FRAME      = TEME
TIME_SYSTEM    = UTC
MEAN_ELEMENT_THEORY = SGP/SGP4

EPOCH          = 2025-12-22T03:41:02.398272
MEAN_MOTION    = 14.95834950
ECCENTRICITY   = .0001498
INCLINATION    = 97.8839
RA_OF_ASC_NODE = 181.6148
ARG_OF_PERICENTER = 81.1981
MEAN_ANOMALY   = 278.9410

EPHEMERIS_TYPE = 0
CLASSIFICATION_TYPE = U
NORAD_CAT_ID   = 31598
ELEMENT_SET_NO = 999
REV_AT_EPOCH   = 331
BSTAR          = .30947E-3
MEAN_MOTION_DOT = .3397E-4
MEAN_MOTION_DDOT = 0

CCSDS_OMM_VERS = 2.0
CREATION_DATE  = 
ORIGINATOR     = 

OBJECT_NAME    = COSMOS 2428
OBJECT_ID      = 2007-029A
CENTER_NAME    = EARTH
REF_FRAME      = TEME
TIME_SYSTEM    = UTC
MEAN_ELEMENT_THEORY = SGP/SGP4

EPOCH          = 2025-12-22T00:18:32.528736
MEAN_MOTION    = 14.12893369
ECCENTRICITY   = .0004193
INCLINATION    = 70.9365
RA_OF_ASC_NODE = 6.4097
ARG_OF_PERICENTER = 10.5789
MEAN_ANOMALY   = 349.5419

EPHEMERIS_TYPE = 0
CLASSIFICATION_TYPE = U
NORAD_CAT_ID   = 31792
ELEMENT_SET_NO = 999
REV_AT_EPOCH   = 95312
BSTAR          = .12452E-3
MEAN_MOTION_DOT = .184E-5
MEAN_MOTION_DDOT = 0

CCSDS_OMM_VERS = 2.0
CREATION_DATE  = 
ORIGINATOR     = 

OBJECT_NAME    = SL-16 R/B
OBJECT_ID      = 2007-029B
CENTER_NAME    = EARTH
REF_FRAME      = TEME
TIME_SYSTEM    = UTC
MEAN_ELEMENT_THEORY = SGP/SGP4

EPOCH          = 2025-12-21T17:51:08.957088
MEAN_MOTION    = 14.14816917
ECCENTRICITY   = .0001901
INCLINATION    = 70.9759
RA_OF_ASC_NODE = 336.2297
ARG_OF_PERICENTER = 262.9375
MEAN_ANOMALY   = 270.0827

EPHEMERIS_TYPE = 0
CLASSIFICATION_TYPE = U
NORAD_CAT_ID   = 31793
ELEMENT_SET_NO = 999
REV_AT_EPOCH   = 95434
BSTAR          = .15299E-3
MEAN_MOTION_DOT = .247E-5
MEAN_MOTION_DDOT = 0

CCSDS_OMM_VERS = 2.0
CREATION_DATE  = 
ORIGINATOR     = 

OBJECT_NAME    = KORONAS-FOTON
OBJECT_ID      = 2009-003A
CENTER_NAME    = EARTH
REF_FRAME      = TEME
TIME_SYSTEM    = UTC
MEAN_ELEMENT_THEORY = SGP/SGP4

EPOCH          = 2025-12-22T00:55:17.385024
MEAN_MOTION    = 15.41370853
ECCENTRICITY   = .0013394
INCLINATION    = 82.4308
RA_OF_ASC_NODE = 356.4686
ARG_OF_PERICENTER = 79.5441
MEAN_ANOMALY   = 280.7313

EPHEMERIS_TYPE = 0
CLASSIFICATION_TYPE = U
NORAD_CAT_ID   = 33504
ELEMENT_SET_NO = 999
REV_AT_EPOCH   = 93377
BSTAR          = .2383E-3
MEAN_MOTION_DOT = .10014E-3
MEAN_MOTION_DDOT = 0

CCSDS_OMM_VERS = 2.0
CREATION_DATE  = 
ORIGINATOR     = 

OBJECT_NAME    = CZ-2C R/B
OBJECT_ID      = 2011-030B
CENTER_NAME    = EARTH
REF_FRAME      = TEME
TIME_SYSTEM    = UTC
MEAN_ELEMENT_THEORY = SGP/SGP4

EPOCH          = 2025-12-21T20:16:02.976960
MEAN_MOTION    = 14.80927953
ECCENTRICITY   = .0051412
INCLINATION    = 97.8428
RA_OF_ASC_NODE = 309.7502
ARG_OF_PERICENTER = 243.1225
MEAN_ANOMALY   = 146.3934

EPHEMERIS_TYPE = 0
CLASSIFICATION_TYPE = U
NORAD_CAT_ID   = 37731
ELEMENT_SET_NO = 999
REV_AT_EPOCH   = 77857
BSTAR          = .14582E-3
MEAN_MOTION_DOT = .1098E-4
MEAN_MOTION_DDOT = 0

CCSDS_OMM_VERS = 2.0
CREATION_DATE  = 
ORIGINATOR     = 

OBJECT_NAME    = H-2A R/B
OBJECT_ID      = 2012-025E
CENTER_NAME    = EARTH
REF_FRAME      = TEME
TIME_SYSTEM    = UTC
MEAN_ELEMENT_THEORY = SGP/SGP4

EPOCH          = 2025-12-21T17:53:27.157344
MEAN_MOTION    = 14.94496716
ECCENTRICITY   = .0044368
INCLINATION    = 98.4610
RA_OF_ASC_NODE = 311.6703
ARG_OF_PERICENTER = 206.2534
MEAN_ANOMALY   = 153.6436

EPHEMERIS_TYPE = 0
CLASSIFICATION_TYPE = U
NORAD_CAT_ID   = 38341
ELEMENT_SET_NO = 999
REV_AT_EPOCH   = 73657
BSTAR          = .20379E-3
MEAN_MOTION_DOT = .2173E-4
MEAN_MOTION_DDOT = 0

CCSDS_OMM_VERS = 2.0
CREATION_DATE  = 
ORIGINATOR     = 

OBJECT_NAME    = SHIJIAN-16 (SJ-16)
OBJECT_ID      = 2013-057A
CENTER_NAME    = EARTH
REF_FRAME      = TEME
TIME_SYSTEM    = UTC
MEAN_ELEMENT_THEORY = SGP/SGP4

EPOCH          = 2025-12-22T04:35:10.454208
MEAN_MOTION    = 14.92006272
ECCENTRICITY   = .0017924
INCLINATION    = 74.9731
RA_OF_ASC_NODE = 331.7707
ARG_OF_PERICENTER = 297.8107
MEAN_ANOMALY   = 62.1264

EPHEMERIS_TYPE = 0
CLASSIFICATION_TYPE = U
NORAD_CAT_ID   = 39358
ELEMENT_SET_NO = 999
REV_AT_EPOCH   = 65994
BSTAR          = .69014E-4
MEAN_MOTION_DOT = .672E-5
MEAN_MOTION_DDOT = 0

